[{"OBJECT_NAME":"STARLINK-34966","OBJECT_ID":"2025-179Y","EPOCH":"2026-03-09T17:02:10.059360","MEAN_MOTION":15.0564903,"ECCENTRICITY":0.00017469,"INCLINATION":97.6025,"RA_OF_ASC_NODE":113.0202,"ARG_OF_PERICENTER":95.7705,"MEAN_ANOMALY":264.3721,"EPHEMERIS_TYPE":0,"CLASSIFICATION_TYPE":"U","NORAD_CAT_ID":65257,"ELEMENT_SET_NO":999,"REV_AT_EPOCH":3193,"BSTAR":3.0656634e-5,"MEAN_MOTION_DOT":3.82e-6,"MEAN_MOTION_DDOT":0},{"OBJECT_NAME":"KUIPER-00203","OBJECT_ID":"2026-030K","EPOCH":"2026-03-09T22:00:01.999584","MEAN_MOTION":15.12119903,"ECCENTRICITY":0.00114753,"INCLINATION":51.8873,"RA_OF_ASC_NODE":219.0557,"ARG_OF_PERICENTER":61.3884,"MEAN_ANOMALY":261.5536,"EPHEMERIS_TYPE":0,"CLASSIFICATION_TYPE":"U","NORAD_CAT_ID":67773,"ELEMENT_SET_NO":999,"REV_AT_EPOCH":368,"BSTAR":-0.068919543,"MEAN_MOTION_DOT":-0.01112832,"MEAN_MOTION_DDOT":0}]
